[{"OBJECT_NAME":"FLYING LAPTOP","OBJECT_ID":"2017-042G","EPOCH":"2026-03-09T23:28:27.762240","MEAN_MOTION":15.00523488,"ECCENTRICITY":0.00192138,"INCLINATION":97.4274,"RA_OF_ASC_NODE":228.6392,"ARG_OF_PERICENTER":94.5564,"MEAN_ANOMALY":265.7856,"EPHEMERIS_TYPE":0,"CLASSIFICATION_TYPE":"U","NORAD_CAT_ID":42831,"ELEMENT_SET_NO":999,"REV_AT_EPOCH":47157,"BSTAR":0.00042943592,"MEAN_MOTION_DOT":5.379e-5,"MEAN_MOTION_DDOT":0},{"OBJECT_NAME":"STARLINK-5691","OBJECT_ID":"2023-015AF","EPOCH":"2026-03-09T01:29:14.830080","MEAN_MOTION":15.02536361,"ECCENTRICITY":0.00012871,"INCLINATION":43.0047,"RA_OF_ASC_NODE":316.9029,"ARG_OF_PERICENTER":266.685,"MEAN_ANOMALY":93.3845,"EPHEMERIS_TYPE":0,"CLASSIFICATION_TYPE":"U","NORAD_CAT_ID":55478,"ELEMENT_SET_NO":999,"REV_AT_EPOCH":17080,"BSTAR":4.5239692e-5,"MEAN_MOTION_DOT":4.08e-6,"MEAN_MOTION_DDOT":0}]
